{"type":"FeatureCollection","features":[{ "type": "MultiPolygon", "coordinates": [ [ [ [ -6.031502744999955, 37.300910281000029 ], [ -6.03276098799995, 37.300451919000068 ], [ -6.033420124999964, 37.301596911000047 ], [ -6.03152610799998, 37.30976505600006 ], [ -6.030511688999979, 37.310066687000074 ], [ -6.028841651999926, 37.310700558000065 ], [ -6.027458587999945, 37.311978875000079 ], [ -6.026550458999964, 37.312747712000032 ], [ -6.026157452999939, 37.313070546000063 ], [ -6.024905881999928, 37.313798265000059 ], [ -6.024181595999949, 37.314275963000057 ], [ -6.023088549999954, 37.315375546000041 ], [ -6.021811963999937, 37.316247928000053 ], [ -6.019775390999939, 37.316670104000025 ], [ -6.018765795999968, 37.316816630000062 ], [ -6.017914366999946, 37.317074923000064 ], [ -6.017540911999959, 37.316797244000043 ], [ -6.01719045599998, 37.316433090000032 ], [ -6.016823582999962, 37.316062028000033 ], [ -6.016369847999954, 37.315623140000071 ], [ -6.016082534999953, 37.315434290000042 ], [ -6.015931680999927, 37.315305293000051 ], [ -6.015121024999928, 37.314402444000052 ], [ -6.017676678999976, 37.31272570200008 ], [ -6.019775641999956, 37.310911800000042 ], [ -6.021835799999963, 37.308965494000063 ], [ -6.023768768999958, 37.307182435000072 ], [ -6.02531294299996, 37.305702680000024 ], [ -6.026894700999947, 37.304328629000054 ], [ -6.028444100999934, 37.302982058000055 ], [ -6.030001998999978, 37.301848621000033 ], [ -6.031502744999955, 37.300910281000029 ] ] ], [ [ [ -5.942526877999967, 37.451928283000029 ], [ -5.935078302999955, 37.449564156000065 ], [ -5.929439540999965, 37.44840471200007 ], [ -5.924822142999972, 37.448745279000036 ], [ -5.920317700999931, 37.44808183400005 ], [ -5.917582976999938, 37.447688667000079 ], [ -5.914754985999934, 37.446183615000052 ], [ -5.908489835999944, 37.444833079000034 ], [ -5.906090622999955, 37.444168211000033 ], [ -5.905525865999948, 37.443916260000037 ], [ -5.904606317999935, 37.442830153000045 ], [ -5.903004347999968, 37.441295471000046 ], [ -5.901102433999938, 37.439505337000071 ], [ -5.89931758299997, 37.437748975000034 ], [ -5.896542718999967, 37.435418679000065 ], [ -5.895055826999965, 37.434284256000069 ], [ -5.894713989999957, 37.433941707000031 ], [ -5.890623185999971, 37.430475551000029 ], [ -5.888129980999963, 37.428127801000073 ], [ -5.887402143999964, 37.427605941000024 ], [ -5.886704148999968, 37.427030259000048 ], [ -5.886366915999929, 37.426545834000081 ], [ -5.885764504999941, 37.425494606000029 ], [ -5.885182897999925, 37.42417708000005 ], [ -5.884995397999944, 37.423819858000059 ], [ -5.884700022999937, 37.423419083000056 ], [ -5.884302881999929, 37.422882229000038 ], [ -5.883985830999961, 37.42247762900007 ], [ -5.883434278999971, 37.421690511000065 ], [ -5.882884298999954, 37.421195870000076 ], [ -5.882646609999938, 37.421040012000049 ], [ -5.882395148999933, 37.420776721000038 ], [ -5.882200677999947, 37.420488945000045 ], [ -5.881766167999956, 37.419983784000067 ], [ -5.881547689999934, 37.419722123000042 ], [ -5.881439943999965, 37.419525031000035 ], [ -5.88113173399995, 37.419254863000049 ], [ -5.880641002999937, 37.419013532000065 ], [ -5.880262961999961, 37.418552417000058 ], [ -5.879879538999944, 37.418134126000041 ], [ -5.879627489999962, 37.417948337000041 ], [ -5.879304588999958, 37.417676727000071 ], [ -5.878819532999955, 37.417250807000073 ], [ -5.878528351999933, 37.416959313000064 ], [ -5.878019536999943, 37.416574375000039 ], [ -5.877485640999964, 37.416085662000057 ], [ -5.877044725999951, 37.415709168000035 ], [ -5.876798583999971, 37.415567003000035 ], [ -5.875069900999961, 37.414265608000051 ], [ -5.875249555999972, 37.413385559000062 ], [ -5.87479923099994, 37.412398749000033 ], [ -5.874407008999981, 37.411670537000077 ], [ -5.873621965999973, 37.410039362000077 ], [ -5.873049589999937, 37.409315750000076 ], [ -5.87277897599995, 37.408361766000041 ], [ -5.872356550999939, 37.40760477200007 ], [ -5.871350878999976, 37.40654025300006 ], [ -5.870223747999944, 37.405419905000031 ], [ -5.869125556999961, 37.404298517000029 ], [ -5.867821386999935, 37.403372835000027 ], [ -5.86693138499993, 37.402890615000047 ], [ -5.866833270999962, 37.402782621000028 ], [ -5.86670993599995, 37.402667052000027 ], [ -5.866405105999945, 37.402603190000036 ], [ -5.866387218999932, 37.402585956000053 ], [ -5.866366243999948, 37.402467338000065 ], [ -5.866302539999936, 37.402245212000025 ], [ -5.86599261799995, 37.402071313000079 ], [ -5.86567882099996, 37.401938597000026 ], [ -5.865357542999959, 37.40186527000003 ], [ -5.864464046999956, 37.401598669000066 ], [ -5.862488479999968, 37.401086337000038 ], [ -5.860776832999932, 37.400609363000058 ], [ -5.859331487999953, 37.399996040000076 ], [ -5.858151930999952, 37.399983636000059 ], [ -5.857758883999963, 37.399884672000042 ], [ -5.855939623999973, 37.399776621000058 ], [ -5.852073419999954, 37.399951070000043 ], [ -5.851853880999954, 37.398902834000069 ], [ -5.850769613999944, 37.398505303000036 ], [ -5.848858630999928, 37.398009516000059 ], [ -5.847272373999942, 37.397652204000053 ], [ -5.846107366999945, 37.397381008000025 ], [ -5.844806184999925, 37.396945305000031 ], [ -5.842630965999945, 37.396575928000061 ], [ -5.841389595999942, 37.396190364000063 ], [ -5.840738182999928, 37.395780364000075 ], [ -5.838567882999939, 37.396124127000064 ], [ -5.837929939999981, 37.396260323000035 ], [ -5.834767388999978, 37.396900003000042 ], [ -5.831145497999955, 37.397153947000049 ], [ -5.829986399999939, 37.397329146000061 ], [ -5.829213118999974, 37.397323476000054 ], [ -5.827629093999974, 37.397173290000069 ], [ -5.826716276999946, 37.397104682000077 ], [ -5.825898576999975, 37.397014958000057 ], [ -5.825452011999971, 37.397188503000052 ], [ -5.82460494999998, 37.397770201000071 ], [ -5.824067659999969, 37.397826408000071 ], [ -5.823387020999974, 37.39770893900004 ], [ -5.82281344699993, 37.397423982000078 ], [ -5.819682460999957, 37.397908099000063 ], [ -5.819422928999927, 37.397991508000075 ], [ -5.819305132999943, 37.39807976000003 ], [ -5.819173373999945, 37.398168344000055 ], [ -5.818405177999978, 37.398710421000033 ], [ -5.81849692399993, 37.39751115100006 ], [ -5.818509315999961, 37.396367387000055 ], [ -5.818604891999939, 37.394522582000036 ], [ -5.818673537999928, 37.393475604000059 ], [ -5.818700534999948, 37.392555949000041 ], [ -5.818906947999949, 37.391529745000071 ], [ -5.819041358999925, 37.390094905000069 ], [ -5.820253282999943, 37.389925280000057 ], [ -5.821395948999964, 37.389858343000071 ], [ -5.821760618999974, 37.389967419000072 ], [ -5.82593940199996, 37.389261716000078 ], [ -5.826548822999939, 37.389208834000044 ], [ -5.829185265999968, 37.388666598000043 ], [ -5.830620298999975, 37.388532023000039 ], [ -5.831841603999976, 37.388330157000041 ], [ -5.834433536999938, 37.387948434000066 ], [ -5.837669934999951, 37.387342319000027 ], [ -5.840901742999961, 37.386807843000042 ], [ -5.843166382999925, 37.387318758000049 ], [ -5.845435763999944, 37.387864998000055 ], [ -5.849560627999949, 37.387579093000056 ], [ -5.85086883799994, 37.38732430500005 ], [ -5.852611913999965, 37.387364897000054 ], [ -5.85395157399995, 37.387280654000051 ], [ -5.854330816999948, 37.387559959000043 ], [ -5.855487533999963, 37.387620935000029 ], [ -5.857237590999944, 37.387734358000046 ], [ -5.857946568999978, 37.387650055000051 ], [ -5.859364047999975, 37.387272229000075 ], [ -5.860837834999927, 37.387298442000031 ], [ -5.863282821999974, 37.387059623000027 ], [ -5.867519296999944, 37.387092915000039 ], [ -5.870253414999979, 37.387191913000038 ], [ -5.874302517999979, 37.387295377000044 ], [ -5.877994696999963, 37.387077340000076 ], [ -5.88443734599997, 37.386741679000068 ], [ -5.885625673999925, 37.38655557900006 ], [ -5.887477349999926, 37.386459025000079 ], [ -5.88839921999994, 37.386151932000075 ], [ -5.889477395999961, 37.385904013000072 ], [ -5.891677296999944, 37.384328778000054 ], [ -5.892681990999961, 37.383988557000066 ], [ -5.895265216999974, 37.382421448000059 ], [ -5.898742241999969, 37.380154864000076 ], [ -5.89892227799993, 37.380065210000055 ], [ -5.900927126999932, 37.379169306000051 ], [ -5.903946266999981, 37.377056536000055 ], [ -5.904549829999951, 37.376940881000053 ], [ -5.907574407999959, 37.376930333000075 ], [ -5.908945069999959, 37.377264699000079 ], [ -5.909343453999952, 37.376035219000073 ], [ -5.911909630999958, 37.375036199000078 ], [ -5.916377927999974, 37.374030136000044 ], [ -5.923635885999943, 37.37277789400008 ], [ -5.925868882999964, 37.371652917000063 ], [ -5.930432895999957, 37.369855623000035 ], [ -5.934417103999976, 37.369322494000073 ], [ -5.937863243999971, 37.36841460800008 ], [ -5.939454579999961, 37.368161505000046 ], [ -5.941869498999949, 37.367515755000056 ], [ -5.945068109999966, 37.367358632000048 ], [ -5.948120102999951, 37.366089213000066 ], [ -5.948074369999972, 37.365693710000073 ], [ -5.943127311999945, 37.364927888000068 ], [ -5.939862848999951, 37.364303397000072 ], [ -5.939317569999957, 37.36285904600004 ], [ -5.93870159599993, 37.362035654000067 ], [ -5.940473120999968, 37.359281595000027 ], [ -5.943222731999981, 37.352773158000048 ], [ -5.943776733999925, 37.35217207200003 ], [ -5.944601364999926, 37.35112422800006 ], [ -5.944925108999939, 37.350765949000049 ], [ -5.946080744999961, 37.349479306000035 ], [ -5.946835637999925, 37.34865334300008 ], [ -5.948200663999955, 37.347119034000059 ], [ -5.948818398999947, 37.346373447000076 ], [ -5.949076979999973, 37.345947951000028 ], [ -5.949362049999934, 37.345515349000038 ], [ -5.949961370999972, 37.344503030000055 ], [ -5.950705312999958, 37.343313324000064 ], [ -5.951209142999971, 37.342561185000079 ], [ -5.952221749999978, 37.341106784000033 ], [ -5.952561984999932, 37.340674854000042 ], [ -5.952784183999938, 37.340305577000038 ], [ -5.95288306599997, 37.339824419000024 ], [ -5.953068455999926, 37.339523159000066 ], [ -5.953440775999979, 37.338869879000072 ], [ -5.954238067999938, 37.337864910000064 ], [ -5.955340738999951, 37.336580643000048 ], [ -5.955781613999932, 37.336210317000052 ], [ -5.956408503999967, 37.335633962000031 ], [ -5.956772036999951, 37.335310822000054 ], [ -5.957147850999945, 37.334970117000069 ], [ -5.957234237999955, 37.33474708500006 ], [ -5.957248796999977, 37.334452179000039 ], [ -5.957294397999931, 37.33396097900004 ], [ -5.957561811999938, 37.333055687000069 ], [ -5.957979154999975, 37.331669748000024 ], [ -5.958229317999951, 37.330760779000059 ], [ -5.958407330999933, 37.330228303000069 ], [ -5.958622912999942, 37.329538086000071 ], [ -5.958739643999934, 37.329096872000036 ], [ -5.95887136999994, 37.328817485000059 ], [ -5.959147117999976, 37.328462022000053 ], [ -5.959659554999973, 37.327825887000074 ], [ -5.960067159999937, 37.327304919000028 ], [ -5.960466525999948, 37.326794509000024 ], [ -5.960884905999933, 37.32627842900007 ], [ -5.961174448999941, 37.325948606000054 ], [ -5.961481598999967, 37.325728565000077 ], [ -5.962119063999978, 37.325336428000071 ], [ -5.963068971999974, 37.324753548000047 ], [ -5.963985423999929, 37.324243307000074 ], [ -5.964159881999933, 37.324272634000067 ], [ -5.964132732999929, 37.322917540000049 ], [ -5.964156440999943, 37.322341100000074 ], [ -5.964186277999943, 37.321990113000027 ], [ -5.964233169999943, 37.321635105000041 ], [ -5.964301759999955, 37.321232402000078 ], [ -5.964403268999945, 37.320792770000025 ], [ -5.964518348999945, 37.320403676000069 ], [ -5.964607116999957, 37.320145601000036 ], [ -5.964725735999934, 37.31984661000007 ], [ -5.96484282199998, 37.319582347000051 ], [ -5.964952678999964, 37.319340172000068 ], [ -5.965076731999943, 37.319105798000066 ], [ -5.96534021399998, 37.318659792000062 ], [ -5.965531815999952, 37.318364830000064 ], [ -5.965872071999968, 37.317882208000071 ], [ -5.966226045999974, 37.31737023800008 ], [ -5.966538306999951, 37.316931299000032 ], [ -5.966819617999931, 37.316544828000076 ], [ -5.967181375999928, 37.316020035000065 ], [ -5.967431548999969, 37.315668019000043 ], [ -5.967689865999944, 37.31531233000004 ], [ -5.967895467999938, 37.315015779000078 ], [ -5.96805216499996, 37.314793377000058 ], [ -5.968241127999931, 37.314515744000062 ], [ -5.968374844999971, 37.314306564000049 ], [ -5.968628533999947, 37.313907049000079 ], [ -5.968987524999932, 37.313417342000037 ], [ -5.999685832999944, 37.319463203000055 ], [ -6.001260718999958, 37.319727439000076 ], [ -6.001315878999947, 37.320608059000051 ], [ -6.001619594999966, 37.321109991000071 ], [ -6.001931839999941, 37.321533953000028 ], [ -6.00242863699998, 37.322051072000079 ], [ -6.003013968999937, 37.322531144000038 ], [ -6.003544873999942, 37.322887227000024 ], [ -6.004312753999955, 37.323342721000074 ], [ -6.005250110999953, 37.323869903000059 ], [ -6.006255031999956, 37.324300360000052 ], [ -6.00730340399997, 37.324709828000039 ], [ -6.008463817999939, 37.325266126000031 ], [ -6.009413827999936, 37.32580385600005 ], [ -6.01023891799997, 37.326213247000055 ], [ -6.011840037999946, 37.326897138000049 ], [ -6.012592487999939, 37.327327675000049 ], [ -6.013346258999945, 37.327819875000046 ], [ -6.014335649999964, 37.328529803000038 ], [ -6.015315554999972, 37.329335852000042 ], [ -6.016245709999964, 37.330218841000033 ], [ -6.016818385999954, 37.330854142000078 ], [ -6.017479267999931, 37.331649455000047 ], [ -6.018186033999939, 37.33263291600008 ], [ -6.018973081999945, 37.333595289000073 ], [ -6.019906031999938, 37.334892588000059 ], [ -6.02064708499995, 37.336397212000065 ], [ -6.021099426999967, 37.337286922000033 ], [ -6.021521009999958, 37.338265027000034 ], [ -6.021986006999953, 37.339215453000065 ], [ -6.022173305999956, 37.339775617000043 ], [ -6.02235030199995, 37.340320566000059 ], [ -6.022496429999933, 37.340813941000079 ], [ -6.022600271999977, 37.341469106000034 ], [ -6.02272875999995, 37.342255206000061 ], [ -6.022875901999953, 37.343160494000074 ], [ -6.022909294999977, 37.344037681000032 ], [ -6.022907867999947, 37.345496266000055 ], [ -6.022805612999946, 37.346954983000046 ], [ -6.02271486799998, 37.348513657000069 ], [ -6.022682627999927, 37.350107030000061 ], [ -6.022628329999975, 37.35127084700008 ], [ -6.022542113999975, 37.351997095000058 ], [ -6.02245288499995, 37.352840004000029 ], [ -6.022456867999949, 37.353517698000076 ], [ -6.022456017999957, 37.354106613000056 ], [ -6.022468063999952, 37.354882887000031 ], [ -6.022506656999951, 37.355369167000049 ], [ -6.02254646199998, 37.355885872000044 ], [ -6.02254011499997, 37.356686665000041 ], [ -6.022567427999945, 37.357843228000036 ], [ -6.022540471999946, 37.358597580000037 ], [ -6.022498638999934, 37.359380072000079 ], [ -6.022499573999937, 37.360433564000061 ], [ -6.022478993999925, 37.361347711000064 ], [ -6.022526747999962, 37.362062162000029 ], [ -6.022490758999936, 37.363068071000043 ], [ -6.02253729499995, 37.363776112000039 ], [ -6.022539584999947, 37.364309 ], [ -6.02246745399998, 37.364889472000073 ], [ -6.022404276999964, 37.365254867000033 ], [ -6.022345757999972, 37.365621514000054 ], [ -6.02233400199998, 37.366725633000044 ], [ -6.021725662999927, 37.368987099000037 ], [ -6.019979992999936, 37.370932234000065 ], [ -6.020543669999938, 37.371766299000058 ], [ -6.020420912999953, 37.37216432200006 ], [ -6.020619746999955, 37.372513783000045 ], [ -6.020626417999949, 37.372696189000067 ], [ -6.020934574999956, 37.372970060000057 ], [ -6.021312384999931, 37.372801740000057 ], [ -6.021702822999941, 37.373061604000043 ], [ -6.021620697999936, 37.373538395000026 ], [ -6.021997782999961, 37.373879471000066 ], [ -6.022171144999959, 37.374210640000058 ], [ -6.022671199999934, 37.374207683000066 ], [ -6.022361719999935, 37.374741553000035 ], [ -6.022271254999964, 37.374864971000079 ], [ -6.022509445999958, 37.375064073000033 ], [ -6.022724684999957, 37.375262203000034 ], [ -6.023203461999969, 37.375481249000075 ], [ -6.022277401999929, 37.376514440000051 ], [ -6.022050157999956, 37.376539681000054 ], [ -6.022033324999938, 37.376717226000039 ], [ -6.022197202999962, 37.37699548900008 ], [ -6.022875444999954, 37.37750602300008 ], [ -6.023054164999962, 37.377899505000073 ], [ -6.022913831999972, 37.378210103000072 ], [ -6.022220571999981, 37.37931601300005 ], [ -6.022441126999979, 37.379591663000042 ], [ -6.022545058999981, 37.380229296000039 ], [ -6.022756372999936, 37.380874065000057 ], [ -6.023162660999958, 37.381333157000029 ], [ -6.023501211999928, 37.381783319000078 ], [ -6.023579070999972, 37.382049239000025 ], [ -6.023657482999965, 37.38230672800006 ], [ -6.024247012999979, 37.384387796000055 ], [ -6.024388116999944, 37.384812844000066 ], [ -6.024495528999978, 37.385166451000032 ], [ -6.024761199999944, 37.385604797000042 ], [ -6.025014228999964, 37.38610903700004 ], [ -6.025075153999978, 37.387055980000071 ], [ -6.025008335999928, 37.388237892000063 ], [ -6.024952218999942, 37.388872057000071 ], [ -6.025009838999949, 37.390652485000032 ], [ -6.024854606999952, 37.391793766000035 ], [ -6.024462056999937, 37.392489114000057 ], [ -6.024098417999937, 37.392994170000065 ], [ -6.023603360999971, 37.39355555700007 ], [ -6.022974019999936, 37.394121290000044 ], [ -6.019855959999973, 37.396600742000032 ], [ -6.018706289999955, 37.398121420000052 ], [ -6.017976861999955, 37.400073674000055 ], [ -6.017045935999931, 37.400007431000063 ], [ -6.015563420999968, 37.400550211000052 ], [ -6.01526613599998, 37.40349724500004 ], [ -6.015658321999979, 37.404836357000079 ], [ -6.014457023999967, 37.408388209000066 ], [ -6.013844846999973, 37.409479974000078 ], [ -6.013458654999965, 37.411050326000066 ], [ -6.01310658899996, 37.41241769100003 ], [ -6.012592563999931, 37.413392575000046 ], [ -6.012443549999944, 37.413877166000077 ], [ -6.012411552999936, 37.414037195000049 ], [ -6.013053676999959, 37.414621813000053 ], [ -6.01186258499996, 37.415752703000067 ], [ -6.01060031999998, 37.415738919000034 ], [ -6.010245618999932, 37.415802900000074 ], [ -6.009791722999978, 37.415874247000033 ], [ -6.009438242999977, 37.415899555000067 ], [ -6.009058823999965, 37.415958133000061 ], [ -6.00863151599998, 37.416012493000039 ], [ -6.008157837999931, 37.41610064300005 ], [ -6.007466663999935, 37.416205196000078 ], [ -6.007067461999952, 37.416280576000077 ], [ -6.006722090999972, 37.416338279000058 ], [ -6.00614690499998, 37.41644530800005 ], [ -6.00569915899996, 37.416500178000035 ], [ -6.00529908599998, 37.416553834000069 ], [ -6.005044612999939, 37.416687311000032 ], [ -6.000903861999973, 37.419406094000067 ], [ -5.998059110999975, 37.41982493900008 ], [ -5.997028587999978, 37.419604109000034 ], [ -5.996326858999964, 37.419432508000057 ], [ -5.995739687999958, 37.422011028000043 ], [ -5.992723601999955, 37.423021837000078 ], [ -5.990587424999944, 37.42372771600003 ], [ -5.991015455999957, 37.424314078000066 ], [ -5.991712699999937, 37.424693326000067 ], [ -5.992322231999935, 37.425043240000036 ], [ -5.992918366999959, 37.425317386000074 ], [ -5.993650551999963, 37.425674682000079 ], [ -5.994150458999968, 37.425849937000066 ], [ -5.994751813999926, 37.426150748000055 ], [ -5.995393612999976, 37.42639073600003 ], [ -5.996049183999958, 37.42670724900006 ], [ -5.996839397999963, 37.427047989000073 ], [ -5.998250883999958, 37.427679419000071 ], [ -5.99925667399998, 37.42806250700005 ], [ -6.000118187999931, 37.428368873000068 ], [ -6.000925031999941, 37.428715685000043 ], [ -6.001609352999935, 37.428946017000044 ], [ -6.002593971999943, 37.429450596000038 ], [ -6.004269425999951, 37.430347614000027 ], [ -6.005625112999951, 37.43128691000004 ], [ -6.00701014699996, 37.432655920000059 ], [ -6.008270426999957, 37.435037672000078 ], [ -6.008630747999973, 37.436040701000024 ], [ -6.008825826999953, 37.436648159000072 ], [ -6.009040078999931, 37.437467776000062 ], [ -6.009191727999962, 37.43832301100008 ], [ -6.00936855499998, 37.43925962000003 ], [ -6.009313793999979, 37.441089786000077 ], [ -6.009467823999955, 37.442357734000041 ], [ -6.01150260999998, 37.442847051000058 ], [ -6.011942719999979, 37.442690498000047 ], [ -6.012601526999958, 37.442288495000071 ], [ -6.013101528999925, 37.441885034000052 ], [ -6.013481824999928, 37.441386444000045 ], [ -6.013775581999937, 37.44067461800006 ], [ -6.014074757999936, 37.43931555100005 ], [ -6.014112320999971, 37.438562269000045 ], [ -6.01410894199995, 37.437700583000037 ], [ -6.013992644999973, 37.437002106000079 ], [ -6.013938989999929, 37.435924249000038 ], [ -6.013808571999959, 37.434744322000029 ], [ -6.013710427999968, 37.434241363000069 ], [ -6.013448248999964, 37.433406994000052 ], [ -6.013286064999932, 37.432399353000051 ], [ -6.013210758999946, 37.431539547000057 ], [ -6.013069989999963, 37.430208124000046 ], [ -6.012943926999981, 37.429081643000075 ], [ -6.012866019999933, 37.428091082000037 ], [ -6.012437957999964, 37.426957332000029 ], [ -6.012236497999936, 37.426375755000038 ], [ -6.012038418999964, 37.425636798000028 ], [ -6.011976508999965, 37.425303059000044 ], [ -6.011938466999936, 37.424409538000077 ], [ -6.012069824999969, 37.423148573000049 ], [ -6.012256909999962, 37.422230734000038 ], [ -6.012836544999971, 37.421145484000078 ], [ -6.013351311999941, 37.420588111000029 ], [ -6.013848787999962, 37.420245264000073 ], [ -6.014735053999971, 37.419888778000029 ], [ -6.016105524999944, 37.419620026000075 ], [ -6.017793853999933, 37.419601775000046 ], [ -6.01899141399997, 37.41978662300005 ], [ -6.01971057999998, 37.42003730600004 ], [ -6.021046614999932, 37.420811833000073 ], [ -6.02197042499995, 37.421663938000052 ], [ -6.022896969999977, 37.42322032800007 ], [ -6.023142468999936, 37.424393652000049 ], [ -6.023137492999979, 37.424542885000051 ], [ -6.022950374999937, 37.424760309000078 ], [ -6.022908161999965, 37.42624984400004 ], [ -6.022995846999947, 37.427500578000036 ], [ -6.023183915999937, 37.427496577000056 ], [ -6.023304305999943, 37.428358287000037 ], [ -6.02346616799997, 37.429648666000048 ], [ -6.023761898999965, 37.430694068000037 ], [ -6.023904827999957, 37.431460117000029 ], [ -6.02366183099997, 37.432102450000059 ], [ -6.023619681999946, 37.432465629000035 ], [ -6.023723965999977, 37.432819824000035 ], [ -6.024110059999941, 37.433144687000038 ], [ -6.024830875999953, 37.433507865000024 ], [ -6.025507170999958, 37.433816549000028 ], [ -6.025929187999964, 37.434204166000029 ], [ -6.02631235399997, 37.434703460000037 ], [ -6.026665365999975, 37.435558899000057 ], [ -6.02802601999997, 37.437421933000053 ], [ -6.02833786399998, 37.438062494000064 ], [ -6.028427190999935, 37.438842736000026 ], [ -6.028305642999953, 37.439529364000066 ], [ -6.028333583999938, 37.440234153000063 ], [ -6.028238297999962, 37.440914072000055 ], [ -6.028578498999934, 37.441344549000064 ], [ -6.028881841999976, 37.442038464000063 ], [ -6.029277209999975, 37.442460657000026 ], [ -6.02887157899994, 37.442473311000072 ], [ -6.028465947999962, 37.44248596400007 ], [ -6.027472702999944, 37.442266256000039 ], [ -6.027238137999973, 37.442794260000028 ], [ -6.026855884999975, 37.443806640000048 ], [ -6.026496563999956, 37.44433971400008 ], [ -6.025806855999974, 37.444805178000024 ], [ -6.024348352999937, 37.445310687000074 ], [ -6.023430694999945, 37.445474190000027 ], [ -6.022035098999936, 37.445593250000059 ], [ -6.02156548399995, 37.445487607000075 ], [ -6.021248086999947, 37.445206487000064 ], [ -6.020934539999928, 37.444682169000032 ], [ -6.021023250999974, 37.444626424000035 ], [ -6.020656346999942, 37.444255245000079 ], [ -6.019710587999953, 37.444209019000027 ], [ -6.018972557999973, 37.444244919000027 ], [ -6.017603643999962, 37.444235212000081 ], [ -6.015866143999972, 37.443811399000026 ], [ -6.013356190999957, 37.44374110800004 ], [ -6.012332993999962, 37.443483688000072 ], [ -6.011504915999978, 37.443393674000049 ], [ -6.011052484999936, 37.443238584000028 ], [ -6.010486071999935, 37.443250287000069 ], [ -6.009594361999973, 37.442788434000079 ], [ -6.00856033599996, 37.44302103800004 ], [ -6.006654130999948, 37.444346134000057 ], [ -6.00567409599995, 37.445486463000066 ], [ -6.004805286999954, 37.446169244000032 ], [ -6.004077846999962, 37.446599693000053 ], [ -6.00290333199996, 37.447198134000075 ], [ -6.002649462999955, 37.44718776600007 ], [ -6.002242003999925, 37.447549674000072 ], [ -6.001623880999944, 37.447680115000026 ], [ -6.000670625999931, 37.448189549000062 ], [ -5.999285111999939, 37.44832673600007 ], [ -5.997954977999939, 37.448148867000043 ], [ -5.996698643999935, 37.447896168000057 ], [ -5.995611520999944, 37.447668984000074 ], [ -5.994191480999973, 37.44750661300003 ], [ -5.993627075999939, 37.447334305000027 ], [ -5.992339793999975, 37.447209655000051 ], [ -5.991647976999957, 37.447135320000029 ], [ -5.990727808999964, 37.447259261000056 ], [ -5.989141762999964, 37.447778308000068 ], [ -5.988554676999968, 37.448086036000063 ], [ -5.987121965999961, 37.449261537000041 ], [ -5.986441155999955, 37.449582171000031 ], [ -5.985728864999942, 37.449716632000047 ], [ -5.979479942999944, 37.449483340000029 ], [ -5.979035137999972, 37.449497890000032 ], [ -5.977758360999928, 37.44971989700008 ], [ -5.976921998999956, 37.450158158000079 ], [ -5.974848251999958, 37.450044643000069 ], [ -5.967226403999973, 37.450968616000068 ], [ -5.961678267999957, 37.451653969000063 ], [ -5.953499536999971, 37.452606866000053 ], [ -5.951532703999931, 37.452766174000033 ], [ -5.949256945999934, 37.452942446000066 ], [ -5.942526877999967, 37.451928283000029 ] ] ] ] }]}